{
  "norad_id": 56427,
  "name": "STARLINK-5724",
  "history": [
    {
      "epoch": "2026-03-28T15:59:02.178816Z",
      "apogee_km": 559.9679012295428,
      "perigee_km": 558.1810143022512,
      "latitude_deg": 1.5940222995181534e-05,
      "longitude_deg": 2.969765731079862,
      "height_km": 558.9570597374839,
      "semi_major_axis_km": 6937.211457765897,
      "eccentricity": 0.00012879,
      "inclination_deg": 43.005,
      "raan_deg": 68.812,
      "arg_perigee_deg": 263.3811,
      "mean_anomaly_deg": 96.6885,
      "mean_motion_rev_day": 15.02537649
    },
    {
      "epoch": "2026-03-29T04:44:51.778464Z",
      "apogee_km": 559.9727243951374,
      "perigee_km": 558.192633825478,
      "latitude_deg": 4.67999918606281e-06,
      "longitude_deg": 168.09899877145938,
      "height_km": 558.9421704906893,
      "semi_major_axis_km": 6937.219679110307,
      "eccentricity": 0.0001283,
      "inclination_deg": 43.0049,
      "raan_deg": 65.9221,
      "arg_perigee_deg": 264.8509,
      "mean_anomaly_deg": 95.2187,
      "mean_motion_rev_day": 15.02534978
    },
    {
      "epoch": "2026-03-30T04:40:47.216352Z",
      "apogee_km": 559.9698351064735,
      "perigee_km": 558.2077797513875,
      "latitude_deg": -5.943209413384524e-05,
      "longitude_deg": 162.71778481269345,
      "height_km": 558.8464396887674,
      "semi_major_axis_km": 6937.22580742893,
      "eccentricity": 0.000127,
      "inclination_deg": 43.0057,
      "raan_deg": 60.5048,
      "arg_perigee_deg": 271.4362,
      "mean_anomaly_deg": 88.6334,
      "mean_motion_rev_day": 15.02532987
    },
    {
      "epoch": "2026-03-30T14:15:09.256896Z",
      "apogee_km": 559.9358863279722,
      "perigee_km": 558.2293303043252,
      "latitude_deg": 4.071788064040257e-05,
      "longitude_deg": 16.564915986530874,
      "height_km": 558.8660493082388,
      "semi_major_axis_km": 6937.219608316148,
      "eccentricity": 0.000123,
      "inclination_deg": 43.0054,
      "raan_deg": 58.3368,
      "arg_perigee_deg": 269.7443,
      "mean_anomaly_deg": 90.3259,
      "mean_motion_rev_day": 15.02535001
    },
    {
      "epoch": "2026-03-31T14:11:04.394112Z",
      "apogee_km": 559.937760866097,
      "perigee_km": 558.2117825772921,
      "latitude_deg": 1.3264414935805264e-05,
      "longitude_deg": 11.182998012432522,
      "height_km": 558.8611274342757,
      "semi_major_axis_km": 6937.211771721694,
      "eccentricity": 0.0001244,
      "inclination_deg": 43.0054,
      "raan_deg": 52.9175,
      "arg_perigee_deg": 269.5546,
      "mean_anomaly_deg": 90.5154,
      "mean_motion_rev_day": 15.02537547
    },
    {
      "epoch": "2026-04-01T14:07:00.045408Z",
      "apogee_km": 559.9004298878081,
      "perigee_km": 558.279893622821,
      "latitude_deg": 1.2779893649157405e-05,
      "longitude_deg": 5.800560930124995,
      "height_km": 558.9211155110276,
      "semi_major_axis_km": 6937.227161755314,
      "eccentricity": 0.0001168,
      "inclination_deg": 43.0072,
      "raan_deg": 47.4998,
      "arg_perigee_deg": 266.3785,
      "mean_anomaly_deg": 93.6924,
      "mean_motion_rev_day": 15.02532547
    },
    {
      "epoch": "2026-04-02T14:02:54.919968Z",
      "apogee_km": 559.8977076954643,
      "perigee_km": 558.2430449920603,
      "latitude_deg": -2.117060557217135e-05,
      "longitude_deg": 0.42113304312997635,
      "height_km": 558.9271791107211,
      "semi_major_axis_km": 6937.207376343762,
      "eccentricity": 0.00011926,
      "inclination_deg": 43.0058,
      "raan_deg": 42.0819,
      "arg_perigee_deg": 264.6482,
      "mean_anomaly_deg": 95.4224,
      "mean_motion_rev_day": 15.02538975
    },
    {
      "epoch": "2026-04-03T06:00:12.002688Z",
      "apogee_km": 559.8801216505353,
      "perigee_km": 558.2873357712242,
      "latitude_deg": 1.202105863960908e-05,
      "longitude_deg": 116.83275260343855,
      "height_km": 558.9617866274209,
      "semi_major_axis_km": 6937.2207287108795,
      "eccentricity": 0.0001148,
      "inclination_deg": 43.005,
      "raan_deg": 38.4699,
      "arg_perigee_deg": 262.8912,
      "mean_anomaly_deg": 97.18,
      "mean_motion_rev_day": 15.02534637
    }
  ]
}